{
    "links": {
        "self": "http://www.neowsapp.com/rest/v1/neo/3619734?api_key=iIulBulltgU6a56xZRHN4H3l9WmuAYTsLGpBGhQ2"
    },
    "id": "3619734",
    "neo_reference_id": "3619734",
    "name": "(2012 XP55)",
    "designation": "2012 XP55",
    "nasa_jpl_url": "http://ssd.jpl.nasa.gov/sbdb.cgi?sstr=3619734",
    "absolute_magnitude_h": 23.9,
    "estimated_diameter": {
        "kilometers": {
            "estimated_diameter_min": 0.04411182,
            "estimated_diameter_max": 0.0986370281
        },
        "meters": {
            "estimated_diameter_min": 44.1118199997,
            "estimated_diameter_max": 98.6370281305
        },
        "miles": {
            "estimated_diameter_min": 0.0274098057,
            "estimated_diameter_max": 0.0612901888
        },
        "feet": {
            "estimated_diameter_min": 144.7238235278,
            "estimated_diameter_max": 323.6123073718
        }
    },
    "is_potentially_hazardous_asteroid": false,
    "close_approach_data": [
        {
            "close_approach_date": "2012-12-27",
            "close_approach_date_full": "2012-Dec-27 09:46",
            "epoch_date_close_approach": 1356601560000,
            "relative_velocity": {
                "kilometers_per_second": "14.0554543655",
                "kilometers_per_hour": "50599.6357158212",
                "miles_per_hour": "31440.6458702001"
            },
            "miss_distance": {
                "astronomical": "0.0235289189",
                "lunar": "9.1527494521",
                "kilometers": "3519876.150842743",
                "miles": "2187149.6206581334"
            },
            "orbiting_body": "Earth"
        }
    ],
    "orbital_data": {
        "orbit_id": "10",
        "orbit_determination_date": "2017-04-06 08:47:43",
        "first_observation_date": "2012-12-08",
        "last_observation_date": "2012-12-23",
        "data_arc_in_days": 15,
        "observations_used": 46,
        "orbit_uncertainty": "8",
        "minimum_orbit_intersection": ".0114788",
        "jupiter_tisserand_invariant": "3.656",
        "epoch_osculation": "2456273.5",
        "eccentricity": ".5977609887734612",
        "semi_major_axis": "1.943762656740622",
        "inclination": "2.796698320651779",
        "ascending_node_longitude": "80.23502873377114",
        "orbital_period": "989.836076065106",
        "perihelion_distance": ".7818571691064181",
        "perihelion_argument": "77.01050955235301",
        "aphelion_distance": "3.105668144374826",
        "perihelion_time": "2456329.561423573586",
        "mean_anomaly": "339.6106517285965",
        "mean_motion": ".3636965844194198",
        "equinox": "J2000",
        "orbit_class": {
            "orbit_class_type": "APO",
            "orbit_class_description": "Near-Earth asteroid orbits which cross the Earth’s orbit similar to that of 1862 Apollo",
            "orbit_class_range": "a (semi-major axis) > 1.0 AU; q (perihelion) < 1.017 AU"
        }
    },
    "is_sentry_object": false
}